     2.10           N: GPS NAV DATA                         RINEX VERSION / TYPE
teqc  2013Mar15     gpsops              20140502 00:05:26UTCPGM / RUN BY / DATE
Linux 2.4.21-27.ELsmp|Opteron|gcc -static|Linux x86_64|=+   COMMENT
MADR                                    MARKER NAME         COMMENT
13407S012                               MARKER NUMBER       COMMENT
4849202.3940 -360328.9929 4114913.1862                      COMMENT
                                                            COMMENT
This data is provided as a public service by NASA/JPL.      COMMENT
No warranty is expressed or implied regarding suitability   COMMENT
for use.  For further information, contact:                 COMMENT
Dave Stowers, NASA/JPL m/s 238-600                          COMMENT
4800 Oak Grove Drive, Pasadena CA 91109 USA                 COMMENT
                                                            END OF HEADER
25 14  5  1 16  0  0.0 2.303160727024D-05 7.958078640513D-13 0.000000000000D+00
    8.100000000000D+01-1.214062500000D+02 4.103028050445D-09 4.253321027093D-01
   -6.210058927536D-06 3.551361849532D-03 7.549300789833D-06 5.153623018265D+03
    4.032000000000D+05 3.911554813385D-08 2.985487219606D+00 8.568167686462D-08
    9.763638233923D-01 2.381875000000D+02 6.539553280015D-01-7.984975463422D-09
   -3.778728827795D-10 1.000000000000D+00 1.790000000000D+03 0.000000000000D+00
    2.000000000000D+00 0.000000000000D+00 5.122274160385D-09 8.100000000000D+01
    3.960300000000D+05 4.000000000000D+00
22 14  5  1 16  0  0.0 2.309116534889D-04 2.614797267597D-12 0.000000000000D+00
    6.300000000000D+01-1.093750000000D+01 5.404510833855D-09-8.505782267973D-01
   -4.172325134277D-07 7.135125692002D-03 9.510666131973D-06 5.153725423813D+03
    4.032000000000D+05 3.725290298462D-09-1.598005280591D-01 1.210719347000D-07
    9.240611139402D-01 1.773750000000D+02-2.063076664933D+00-8.411778955786D-09
   -4.325180161115D-10 1.000000000000D+00 1.790000000000D+03 0.000000000000D+00
    2.000000000000D+00 0.000000000000D+00-1.722946763039D-08 6.300000000000D+01
    3.960300000000D+05 4.000000000000D+00
29 14  5  1 16  0  0.0 5.294373258948D-04 2.728484105319D-12 0.000000000000D+00
    7.100000000000D+01-4.625000000000D+00 4.207675266564D-09 8.834339229575D-01
   -3.241002559662D-07 1.634717802517D-03 1.061148941517D-05 5.153714609146D+03
    4.032000000000D+05 3.352761268616D-08-2.196284927923D+00 1.303851604462D-08
    9.690866910134D-01 1.785937500000D+02-8.945040303347D-01-7.783181343601D-09
    4.860916762409D-10 1.000000000000D+00 1.790000000000D+03 0.000000000000D+00
    2.000000000000D+00 0.000000000000D+00-9.778887033463D-09 7.100000000000D+01
    3.984600000000D+05 4.000000000000D+00
 2 14  5  1 15 59 44.0 4.928619600832D-04 2.160049916711D-12 0.000000000000D+00
    2.900000000000D+01 1.000000000000D+00 5.209145553250D-09 2.863340007067D+00
    4.842877388000D-08 1.350007730071D-02 4.746019840240D-06 5.153588899612D+03
    4.031840000000D+05-3.166496753693D-08-1.224638781269D+00-1.732259988785D-07
    9.389639672067D-01 2.755937500000D+02-2.433240958001D+00-8.205698943155D-09
    1.621496113250D-10 1.000000000000D+00 1.790000000000D+03 0.000000000000D+00
    2.000000000000D+00 0.000000000000D+00-2.048909664154D-08 2.900000000000D+01
    3.995700000000D+05 4.000000000000D+00
 4 14  5  1 16  0  0.0 6.862916052341D-06 0.000000000000D+00 0.000000000000D+00
    8.500000000000D+01 4.500000000000D+00 5.384510000740D-09-4.003506172387D-02
    3.632158041000D-07 1.055292936508D-02 4.820525646210D-06 5.153717285156D+03
    4.032000000000D+05-8.381903171539D-08-1.208584526625D+00 1.657754182816D-07
    9.379871519356D-01 2.760625000000D+02 1.091995113957D+00-8.652146110900D-09
    1.396486740707D-10 1.000000000000D+00 1.790000000000D+03 0.000000000000D+00
    2.000000000000D+00 0.000000000000D+00-6.519258022308D-09 8.500000000000D+01
    3.999600000000D+05 4.000000000000D+00
12 14  5  1 18  0  0.0 2.021607942879D-04 2.387423592154D-12 0.000000000000D+00
    1.350000000000D+02-1.099375000000D+02 3.789086402086D-09 2.247363501173D+00
   -5.839392542839D-06 5.118944682181D-03 8.661299943924D-06 5.153639083862D+03
    4.104000000000D+05-1.639127731323D-07 3.027538982659D+00 2.048909664154D-08
    9.876628833006D-01 2.269687500000D+02 4.099093971146D-01-7.677819812013D-09
   -3.075128091428D-10 1.000000000000D+00 1.790000000000D+03 0.000000000000D+00
    2.000000000000D+00 0.000000000000D+00-1.210719347000D-08 1.350000000000D+02
    4.032000000000D+05 4.000000000000D+00
14 14  5  1 18  0  0.0 1.767296344042D-04-3.410605131648D-12 0.000000000000D+00
    8.300000000000D+01 1.253125000000D+02 4.263034715364D-09-9.249824436544D-01
    6.649643182755D-06 7.416752283461D-03 8.134171366692D-06 5.153660167694D+03
    4.104000000000D+05-2.607703208923D-08 9.681697602938D-01 1.545995473862D-07
    9.705201795696D-01 2.308750000000D+02-2.001616835856D+00-8.016048186297D-09
    2.571535686212D-10 1.000000000000D+00 1.790000000000D+03 0.000000000000D+00
    2.800000000000D+00 0.000000000000D+00-9.313225746155D-09 8.300000000000D+01
    4.032000000000D+05 4.000000000000D+00
29 14  5  1 18  0  0.0 5.294568836689D-04 2.728484105319D-12 0.000000000000D+00
    1.050000000000D+02 3.781250000000D+00 4.152315817764D-09 1.932865850867D+00
    1.452863216400D-07 1.634757150896D-03 1.043640077114D-05 5.153716810226D+03
    4.104000000000D+05-5.587935447693D-09-2.196340507107D+00 9.313225746155D-08
    9.690903234390D-01 1.809687500000D+02-8.937830926019D-01-7.718892951446D-09
    4.450185368083D-10 1.000000000000D+00 1.790000000000D+03 0.000000000000D+00
    2.800000000000D+00 0.000000000000D+00-9.778887033463D-09 1.050000000000D+02
    4.032000000000D+05 4.000000000000D+00
 2 14  5  1 18  0  0.0 4.928773269057D-04 2.160049916711D-12 0.000000000000D+00
    3.000000000000D+01 3.437500000000D+00 5.234146594644D-09-2.367273777381D+00
    1.806765794754D-07 1.349976006895D-02 4.751607775688D-06 5.153589475632D+03
    4.104000000000D+05 9.313225746155D-08-1.224698588286D+00-1.564621925354D-07
    9.389652077613D-01 2.759687500000D+02-2.433240861449D+00-8.256058183677D-09
    2.400099973798D-10 1.000000000000D+00 1.790000000000D+03 0.000000000000D+00
    2.000000000000D+00 0.000000000000D+00-2.048909664154D-08 3.000000000000D+01
    4.032300000000D+05 4.000000000000D+00
 4 14  5  1 18  0  0.0 6.862916052341D-06 0.000000000000D+00 0.000000000000D+00
    8.600000000000D+01 5.406250000000D+00 5.407368095729D-09 1.010109438953D+00
    3.259629011154D-07 1.055337733123D-02 5.185604095459D-06 5.153718193054D+03
    4.104000000000D+05-1.490116119385D-07-1.208646042330D+00-5.587935447693D-09
    9.379875922739D-01 2.727187500000D+02 1.092010348786D+00-8.632502435519D-09
    4.285892810353D-12 1.000000000000D+00 1.790000000000D+03 0.000000000000D+00
    2.000000000000D+00 0.000000000000D+00-6.519258022308D-09 8.600000000000D+01
    4.032300000000D+05 4.000000000000D+00
24 14  5  1 18  0  0.0-2.767797559500D-05-6.821210263297D-13 0.000000000000D+00
    8.100000000000D+01 1.143750000000D+01 5.006994275695D-09-2.777213432030D+00
    5.606561899185D-07 2.063018269837D-03 1.063570380211D-06 5.153734306335D+03
    4.104000000000D+05-2.607703208923D-08 1.930663307739D+00-6.705522537231D-08
    9.566989099154D-01 3.572812500000D+02 3.363563264768D-01-8.524640799792D-09
    2.107230631757D-11 1.000000000000D+00 1.790000000000D+03 0.000000000000D+00
    2.800000000000D+00 0.000000000000D+00 2.793967723846D-09 8.100000000000D+01
    4.032300000000D+05 4.000000000000D+00
25 14  5  1 18  0  0.0 2.303719520569D-05 7.958078640513D-13 0.000000000000D+00
    8.200000000000D+01-1.163125000000D+02 4.125528987699D-09 1.475462332620D+00
   -5.973502993584D-06 3.552002832294D-03 8.011236786842D-06 5.153624149323D+03
    4.104000000000D+05-5.960464477539D-08 2.985429574782D+00 1.322478055954D-07
    9.763611798993D-01 2.335625000000D+02 6.540333980877D-01-7.957117160155D-09
   -3.325138505366D-10 1.000000000000D+00 1.790000000000D+03 0.000000000000D+00
    2.000000000000D+00 0.000000000000D+00 5.122274160385D-09 8.200000000000D+01
    4.032300000000D+05 4.000000000000D+00
31 14  5  1 17 59 44.0 3.342553973198D-04 0.000000000000D+00 0.000000000000D+00
    2.100000000000D+01 1.515625000000D+01 4.622335395966D-09 2.541474501517D+00
    9.853392839432D-07 8.013467537239D-03 1.141801476479D-06 5.153537937164D+03
    4.103840000000D+05 7.264316082001D-08 1.970951634230D+00 1.657754182816D-07
    9.782737229244D-01 3.677812500000D+02-6.392645978564D-01-8.316060683022D-09
   -2.428672592533D-11 1.000000000000D+00 1.790000000000D+03 0.000000000000D+00
    2.000000000000D+00 0.000000000000D+00-1.303851604462D-08 2.100000000000D+01
    4.033500000000D+05 4.000000000000D+00
 6 14  5  1 18  0  0.0-1.576449722052D-04-2.046363078989D-12 0.000000000000D+00
    3.000000000000D+01-1.205312500000D+02 5.351651489194D-09 8.027499634724D-02
   -6.115064024925D-06 6.914145080373D-03 7.513910531998D-06 5.153589242935D+03
    4.104000000000D+05 3.725290298462D-09 3.003622950666D+00 8.009374141693D-08
    9.811460821126D-01 2.410937500000D+02 8.567641232304D-01-8.015691028563D-09
   -3.850160374634D-10 1.000000000000D+00 1.790000000000D+03 0.000000000000D+00
    2.000000000000D+00 6.300000000000D+01-1.909211277962D-08 3.000000000000D+01
    4.059600000000D+05 4.000000000000D+00
21 14  5  1 18  0  0.0-3.585815429688D-04-2.273736754432D-12 0.000000000000D+00
    2.000000000000D+01-2.031250000000D+00 5.540230772850D-09 1.728995363323D+00
   -4.861503839493D-07 2.145914791618D-02 5.235895514488D-06 5.153755170822D+03
    4.104000000000D+05-3.166496753693D-07-1.207174513515D+00-4.302710294724D-07
    9.319022802363D-01 2.673125000000D+02-2.031412323906D+00-8.560713730946D-09
    6.035965707914D-11 1.000000000000D+00 1.790000000000D+03 0.000000000000D+00
    2.000000000000D+00 0.000000000000D+00-1.117587089539D-08 2.000000000000D+01
    4.070400000000D+05 4.000000000000D+00
